[{"OBJECT_NAME":"STRIX-BETA","OBJECT_ID":"2022-020A","EPOCH":"2026-03-09T19:26:29.889888","MEAN_MOTION":15.76952977,"ECCENTRICITY":0.00056276,"INCLINATION":97.5704,"RA_OF_ASC_NODE":163.502,"ARG_OF_PERICENTER":250.1372,"MEAN_ANOMALY":109.9287,"EPHEMERIS_TYPE":0,"CLASSIFICATION_TYPE":"U","NORAD_CAT_ID":51847,"ELEMENT_SET_NO":999,"REV_AT_EPOCH":22299,"BSTAR":0.0015320612,"MEAN_MOTION_DOT":0.0025428,"MEAN_MOTION_DDOT":0},{"OBJECT_NAME":"STARLINK-36739","OBJECT_ID":"2026-032F","EPOCH":"2026-03-09T22:11:04.011072","MEAN_MOTION":15.75252344,"ECCENTRICITY":0.00015532,"INCLINATION":97.2849,"RA_OF_ASC_NODE":255.4741,"ARG_OF_PERICENTER":75.2971,"MEAN_ANOMALY":284.8466,"EPHEMERIS_TYPE":0,"CLASSIFICATION_TYPE":"U","NORAD_CAT_ID":67802,"ELEMENT_SET_NO":999,"REV_AT_EPOCH":482,"BSTAR":0.0012979371,"MEAN_MOTION_DOT":0.00198569,"MEAN_MOTION_DDOT":0}]
